0 SL-3 DEB
1 26848U 75124C   13281.26098647  .00000211  00000-0  11397-3 0  4874
2 26848 081.2813 024.9676 0022951 156.3660 233.4963 14.09136264706439
0 SL-3 DEB
1 26848U 75124C   13282.77020848  .00000190  00000-0  10211-3 0  4880
2 26848 081.2815 023.5067 0023023 152.2161 329.4958 14.09137226706644
0 SL-3 DEB
1 26848U 75124C   13286.03556866  .00000204  00000-0  11020-3 0  4905
2 26848 081.2820 020.3465 0023126 143.2896 334.0193 14.09138575707109
0 SL-3 DEB
1 26848U 75124C   13287.74010150  .00000227  00000-0  12337-3 0  4913
2 26848 081.2820 018.6970 0023164 138.6623 340.7493 14.09139253707345
0 SL-3 DEB
1 26848U 75124C   13289.44480745  .00000219  00000-0  11838-3 0  4920
2 26848 081.2818 017.0474 0023179 134.0250 348.3719 14.09140185707583
0 SL-3 DEB
1 26848U 75124C   13290.65184287  .00000224  00000-0  12156-3 0  4938
2 26848 081.2816 015.8794 0023208 130.7364 351.4221 14.09140737707759
0 SL-3 DEB
1 26848U 75124C   13291.71649528  .00000216  00000-0  11708-3 0  4944
2 26848 081.2815 014.8491 0023181 127.8858 352.1439 14.09141336707908
0 SL-3 DEB
1 26848U 75124C   13293.55143756  .00000199  00000-0  10717-3 0  4950
2 26848 081.2814 013.0734 0023178 122.8669 300.4688 14.09142345708161
0 SL-3 DEB
1 26848U 75124C   13294.69857234  .00000191  00000-0  10259-3 0  4963
2 26848 081.2815 011.9630 0023155 119.7374 359.6671 14.09142978708325
